CCSDS_OMM_VERS = 2.0
CREATION_DATE  = 
ORIGINATOR     = 

OBJECT_NAME    = SL-3 R/B
OBJECT_ID      = 1988-032B
CENTER_NAME    = EARTH
REF_FRAME      = TEME
TIME_SYSTEM    = UTC
MEAN_ELEMENT_THEORY = SGP/SGP4

EPOCH          = 2026-03-19T05:06:00.594432
MEAN_MOTION    = 15.20012686
ECCENTRICITY   = .00252805
INCLINATION    = 97.5202
RA_OF_ASC_NODE = 61.4307
ARG_OF_PERICENTER = 196.8547
MEAN_ANOMALY   = 163.1851

EPHEMERIS_TYPE = 0
CLASSIFICATION_TYPE = U
NORAD_CAT_ID   = 19046
ELEMENT_SET_NO = 999
REV_AT_EPOCH   = 5355
BSTAR          = .17899554E-3
MEAN_MOTION_DOT = .3817E-4
MEAN_MOTION_DDOT = 0

CCSDS_OMM_VERS = 2.0
CREATION_DATE  = 
ORIGINATOR     = 

OBJECT_NAME    = SL-16 R/B
OBJECT_ID      = 1988-039B
CENTER_NAME    = EARTH
REF_FRAME      = TEME
TIME_SYSTEM    = UTC
MEAN_ELEMENT_THEORY = SGP/SGP4

EPOCH          = 2026-03-19T06:45:10.504512
MEAN_MOTION    = 14.19617815
ECCENTRICITY   = .00232411
INCLINATION    = 71.0149
RA_OF_ASC_NODE = 48.2642
ARG_OF_PERICENTER = 320.4943
MEAN_ANOMALY   = 39.4487

EPHEMERIS_TYPE = 0
CLASSIFICATION_TYPE = U
NORAD_CAT_ID   = 19120
ELEMENT_SET_NO = 999
REV_AT_EPOCH   = 95974
BSTAR          = -.286374E-5
MEAN_MOTION_DOT = -.54E-6
MEAN_MOTION_DDOT = 0

CCSDS_OMM_VERS = 2.0
CREATION_DATE  = 
ORIGINATOR     = 

OBJECT_NAME    = COSMOS 1953
OBJECT_ID      = 1988-050A
CENTER_NAME    = EARTH
REF_FRAME      = TEME
TIME_SYSTEM    = UTC
MEAN_ELEMENT_THEORY = SGP/SGP4

EPOCH          = 2026-03-19T05:57:41.937120
MEAN_MOTION    = 15.28675851
ECCENTRICITY   = .0012668
INCLINATION    = 82.5094
RA_OF_ASC_NODE = 148.6337
ARG_OF_PERICENTER = 92.6112
MEAN_ANOMALY   = 267.6578

EPHEMERIS_TYPE = 0
CLASSIFICATION_TYPE = U
NORAD_CAT_ID   = 19210
ELEMENT_SET_NO = 999
REV_AT_EPOCH   = 3924
BSTAR          = .19121502E-3
MEAN_MOTION_DOT = .5376E-4
MEAN_MOTION_DDOT = 0

CCSDS_OMM_VERS = 2.0
CREATION_DATE  = 
ORIGINATOR     = 

OBJECT_NAME    = SL-8 R/B
OBJECT_ID      = 1988-053B
CENTER_NAME    = EARTH
REF_FRAME      = TEME
TIME_SYSTEM    = UTC
MEAN_ELEMENT_THEORY = SGP/SGP4

EPOCH          = 2026-03-19T07:27:31.369536
MEAN_MOTION    = 14.38922046
ECCENTRICITY   = .00215446
INCLINATION    = 74.0450
RA_OF_ASC_NODE = 94.7303
ARG_OF_PERICENTER = 272.7718
MEAN_ANOMALY   = 98.3894

EPHEMERIS_TYPE = 0
CLASSIFICATION_TYPE = U
NORAD_CAT_ID   = 19257
ELEMENT_SET_NO = 999
REV_AT_EPOCH   = 97798
BSTAR          = .98854909E-4
MEAN_MOTION_DOT = .279E-5
MEAN_MOTION_DDOT = 0

CCSDS_OMM_VERS = 2.0
CREATION_DATE  = 
ORIGINATOR     = 

OBJECT_NAME    = COSMOS 1975
OBJECT_ID      = 1988-093A
CENTER_NAME    = EARTH
REF_FRAME      = TEME
TIME_SYSTEM    = UTC
MEAN_ELEMENT_THEORY = SGP/SGP4

EPOCH          = 2026-03-19T03:41:55.663008
MEAN_MOTION    = 15.28193761
ECCENTRICITY   = .00129379
INCLINATION    = 82.5163
RA_OF_ASC_NODE = 108.1817
ARG_OF_PERICENTER = 132.2930
MEAN_ANOMALY   = 227.9408

EPHEMERIS_TYPE = 0
CLASSIFICATION_TYPE = U
NORAD_CAT_ID   = 19573
ELEMENT_SET_NO = 999
REV_AT_EPOCH   = 2085
BSTAR          = .2033763E-3
MEAN_MOTION_DOT = .5633E-4
MEAN_MOTION_DDOT = 0

CCSDS_OMM_VERS = 2.0
CREATION_DATE  = 
ORIGINATOR     = 

OBJECT_NAME    = SL-14 R/B
OBJECT_ID      = 1988-093B
CENTER_NAME    = EARTH
REF_FRAME      = TEME
TIME_SYSTEM    = UTC
MEAN_ELEMENT_THEORY = SGP/SGP4

EPOCH          = 2026-03-19T07:27:14.766048
MEAN_MOTION    = 14.85668028
ECCENTRICITY   = .00209748
INCLINATION    = 82.5325
RA_OF_ASC_NODE = 33.0127
ARG_OF_PERICENTER = 10.7832
MEAN_ANOMALY   = 141.4385

EPHEMERIS_TYPE = 0
CLASSIFICATION_TYPE = U
NORAD_CAT_ID   = 19574
ELEMENT_SET_NO = 999
REV_AT_EPOCH   = 244
BSTAR          = .57362025E-4
MEAN_MOTION_DOT = .523E-5
MEAN_MOTION_DDOT = 0

CCSDS_OMM_VERS = 2.0
CREATION_DATE  = 
ORIGINATOR     = 

OBJECT_NAME    = SL-16 R/B
OBJECT_ID      = 1988-102B
CENTER_NAME    = EARTH
REF_FRAME      = TEME
TIME_SYSTEM    = UTC
MEAN_ELEMENT_THEORY = SGP/SGP4

EPOCH          = 2026-03-19T07:11:04.188192
MEAN_MOTION    = 14.16156029
ECCENTRICITY   = .00146452
INCLINATION    = 70.9990
RA_OF_ASC_NODE = 131.2783
ARG_OF_PERICENTER = 346.5940
MEAN_ANOMALY   = 13.4792

EPHEMERIS_TYPE = 0
CLASSIFICATION_TYPE = U
NORAD_CAT_ID   = 19650
ELEMENT_SET_NO = 999
REV_AT_EPOCH   = 92825
BSTAR          = -.11174585E-4
MEAN_MOTION_DOT = -.7E-6
MEAN_MOTION_DDOT = 0

CCSDS_OMM_VERS = 2.0
CREATION_DATE  = 
ORIGINATOR     = 

OBJECT_NAME    = INTERCOSMOS 24
OBJECT_ID      = 1989-080A
CENTER_NAME    = EARTH
REF_FRAME      = TEME
TIME_SYSTEM    = UTC
MEAN_ELEMENT_THEORY = SGP/SGP4

EPOCH          = 2026-03-19T02:18:05.840352
MEAN_MOTION    = 12.59571281
ECCENTRICITY   = .11866737
INCLINATION    = 82.6016
RA_OF_ASC_NODE = 98.2774
ARG_OF_PERICENTER = 270.9650
MEAN_ANOMALY   = 75.6003

EPHEMERIS_TYPE = 0
CLASSIFICATION_TYPE = U
NORAD_CAT_ID   = 20261
ELEMENT_SET_NO = 999
REV_AT_EPOCH   = 66798
BSTAR          = .15880647E-3
MEAN_MOTION_DOT = .534E-5
MEAN_MOTION_DDOT = 0

CCSDS_OMM_VERS = 2.0
CREATION_DATE  = 
ORIGINATOR     = 

OBJECT_NAME    = SL-14 R/B
OBJECT_ID      = 1989-080C
CENTER_NAME    = EARTH
REF_FRAME      = TEME
TIME_SYSTEM    = UTC
MEAN_ELEMENT_THEORY = SGP/SGP4

EPOCH          = 2026-03-19T07:38:13.260192
MEAN_MOTION    = 12.50504120
ECCENTRICITY   = .12307929
INCLINATION    = 82.5966
RA_OF_ASC_NODE = 167.0076
ARG_OF_PERICENTER = 162.7502
MEAN_ANOMALY   = 201.9630

EPHEMERIS_TYPE = 0
CLASSIFICATION_TYPE = U
NORAD_CAT_ID   = 20262
ELEMENT_SET_NO = 999
REV_AT_EPOCH   = 66135
BSTAR          = .12157319E-3
MEAN_MOTION_DOT = .427E-5
MEAN_MOTION_DDOT = 0

CCSDS_OMM_VERS = 2.0
CREATION_DATE  = 
ORIGINATOR     = 

OBJECT_NAME    = DELTA 1 R/B
OBJECT_ID      = 1989-089B
CENTER_NAME    = EARTH
REF_FRAME      = TEME
TIME_SYSTEM    = UTC
MEAN_ELEMENT_THEORY = SGP/SGP4

EPOCH          = 2026-03-19T06:39:30.440160
MEAN_MOTION    = 14.50671098
ECCENTRICITY   = .0070721
INCLINATION    = 97.0698
RA_OF_ASC_NODE = 284.1907
ARG_OF_PERICENTER = 92.2696
MEAN_ANOMALY   = 268.6602

EPHEMERIS_TYPE = 0
CLASSIFICATION_TYPE = U
NORAD_CAT_ID   = 20323
ELEMENT_SET_NO = 999
REV_AT_EPOCH   = 89712
BSTAR          = .90517633E-4
MEAN_MOTION_DOT = .332E-5
MEAN_MOTION_DDOT = 0

CCSDS_OMM_VERS = 2.0
CREATION_DATE  = 
ORIGINATOR     = 

OBJECT_NAME    = ARIANE 40 R/B
OBJECT_ID      = 1990-005H
CENTER_NAME    = EARTH
REF_FRAME      = TEME
TIME_SYSTEM    = UTC
MEAN_ELEMENT_THEORY = SGP/SGP4

EPOCH          = 2026-03-19T04:40:31.628928
MEAN_MOTION    = 14.39876517
ECCENTRICITY   = .00104505
INCLINATION    = 98.3063
RA_OF_ASC_NODE = 138.5722
ARG_OF_PERICENTER = 169.7193
MEAN_ANOMALY   = 190.4211

EPHEMERIS_TYPE = 0
CLASSIFICATION_TYPE = U
NORAD_CAT_ID   = 20443
ELEMENT_SET_NO = 999
REV_AT_EPOCH   = 89417
BSTAR          = .8526135E-4
MEAN_MOTION_DOT = .226E-5
MEAN_MOTION_DDOT = 0

CCSDS_OMM_VERS = 2.0
CREATION_DATE  = 
ORIGINATOR     = 

OBJECT_NAME    = DELTA 2 R/B(1)
OBJECT_ID      = 1990-008B
CENTER_NAME    = EARTH
REF_FRAME      = TEME
TIME_SYSTEM    = UTC
MEAN_ELEMENT_THEORY = SGP/SGP4

EPOCH          = 2026-03-18T19:16:07.447872
MEAN_MOTION    = 15.57130229
ECCENTRICITY   = .00820237
INCLINATION    = 35.6024
RA_OF_ASC_NODE = 114.9908
ARG_OF_PERICENTER = 343.0931
MEAN_ANOMALY   = 16.7077

EPHEMERIS_TYPE = 0
CLASSIFICATION_TYPE = U
NORAD_CAT_ID   = 20453
ELEMENT_SET_NO = 999
REV_AT_EPOCH   = 92755
BSTAR          = .54577361E-3
MEAN_MOTION_DOT = .48118E-3
MEAN_MOTION_DDOT = 0

