SL-3 R/B                
1 19046U 88032B   26078.21250688  .00003817  00000+0  17900-3 0  9994
2 19046  97.5202  61.4307 0025280 196.8547 163.1851 15.20012686 53559
SL-16 R/B               
1 19120U 88039B   26078.28137158 -.00000054  00000+0 -28637-5 0  9990
2 19120  71.0149  48.2642 0023241 320.4943  39.4487 14.19617815959742
COSMOS 1953             
1 19210U 88050A   26078.24840205  .00005376  00000+0  19122-3 0  9990
2 19210  82.5094 148.6337 0012668  92.6112 267.6578 15.28675851 39246
SL-8 R/B                
1 19257U 88053B   26078.31077974  .00000279  00000+0  98855-4 0  9995
2 19257  74.0450  94.7303 0021544 272.7718  98.3894 14.38922046977982
COSMOS 1975             
1 19573U 88093A   26078.15411647  .00005633  00000+0  20338-3 0  9990
2 19573  82.5163 108.1817 0012937 132.2930 227.9408 15.28193761 20850
SL-14 R/B               
1 19574U 88093B   26078.31058757  .00000523  00000+0  57362-4 0  9999
2 19574  82.5325  33.0127 0020974  10.7832 141.4385 14.85668028  2446
SL-16 R/B               
1 19650U 88102B   26078.29935403 -.00000070  00000+0 -11175-4 0  9995
2 19650  70.9990 131.2783 0014645 346.5940  13.4792 14.16156029928250
INTERCOSMOS 24          
1 20261U 89080A   26078.09590093  .00000534  00000+0  15881-3 0  9991
2 20261  82.6016  98.2774 1186673 270.9650  75.6003 12.59571281667982
SL-14 R/B               
1 20262U 89080C   26078.31820903  .00000427  00000+0  12157-3 0  9997
2 20262  82.5966 167.0076 1230792 162.7502 201.9630 12.50504120661356
DELTA 1 R/B             
1 20323U 89089B   26078.27743565  .00000332  00000+0  90518-4 0  9990
2 20323  97.0698 284.1907 0070721  92.2696 268.6602 14.50671098897121
ARIANE 40 R/B           
1 20443U 90005H   26078.19481052  .00000226  00000+0  85261-4 0  9995
2 20443  98.3063 138.5722 0010450 169.7193 190.4211 14.39876517894176
DELTA 2 R/B(1)          
1 20453U 90008B   26077.80286398  .00048118  00000+0  54577-3 0  9999
2 20453  35.6024 114.9908 0082023 343.0931  16.7077 15.57130229927557
